{
  "version": 1,
  "fetchedAt": "2026-06-16T16:59:36.124Z",
  "source": "celestrak-gp",
  "counts": {
    "station": 25,
    "satellite": 400,
    "debris": 250
  },
  "objects": [
    {
      "id": "61736",
      "name": "IONOSFERA-M 2",
      "noradId": 61736,
      "line1": "1 61736U 24199B   26167.24352645  .00000054  00000+0  43773-4 0  9997",
      "line2": "2 61736  98.7172  40.3363 0001090  39.1807 320.9449 14.22757391130697",
      "category": "satellite"
    },
    {
      "id": "62725",
      "name": "PRSC-EO1",
      "noradId": 62725,
      "line1": "1 62725U 25012A   26166.27955253  .00006175  00000+0  30911-3 0  9996",
      "line2": "2 62725  97.4230 238.7768 0004318 259.0551 101.0197 15.17748554 77902",
      "category": "satellite"
    },
    {
      "id": "63772",
      "name": "BIOMASS",
      "noradId": 63772,
      "line1": "1 63772U 25090A   26167.21531161  .00000856  00000+0  15937-3 0  9999",
      "line2": "2 63772  98.0740 354.5463 0001359  92.8569 267.2791 14.67536465 60548",
      "category": "satellite"
    },
    {
      "id": "64694",
      "name": "GOSAT-GW (IBUKI GW)",
      "noradId": 64694,
      "line1": "1 64694U 25141A   26167.30379000  .00000639  00000+0  12102-3 0  9992",
      "line2": "2 64694  98.0569 104.6352 0001420  83.4882 276.6484 14.67554828 51710",
      "category": "satellite"
    },
    {
      "id": "64876",
      "name": "IONOSFERA-M 3",
      "noradId": 64876,
      "line1": "1 64876U 25155A   26167.33076674  .00000034  00000+0  34952-4 0  9990",
      "line2": "2 64876  98.6024 129.2573 0000971 158.4808 201.6410 14.21486342 46281",
      "category": "satellite"
    },
    {
      "id": "64877",
      "name": "IONOSFERA-M 4",
      "noradId": 64877,
      "line1": "1 64877U 25155B   26167.29522115  .00000038  00000+0  36874-4 0  9991",
      "line2": "2 64877  98.6031 129.1401 0001010 119.9757 240.1521 14.21488533 46273",
      "category": "satellite"
    },
    {
      "id": "64899",
      "name": "MICROCARB",
      "noradId": 64899,
      "line1": "1 64899U 25156A   26167.19829692  .00000437  00000+0  76881-4 0  9990",
      "line2": "2 64899  97.9832 244.3533 0014977 275.6591  84.2909 14.72324664 47825",
      "category": "satellite"
    },
    {
      "id": "64900",
      "name": "CO3D 3",
      "noradId": 64900,
      "line1": "1 64900U 25156B   26167.26610966  .00003367  00000+0  15857-3 0  9993",
      "line2": "2 64900  97.4332 245.9723 0001473 133.0626 227.0733 15.20205164 49392",
      "category": "satellite"
    },
    {
      "id": "64901",
      "name": "CO3D 4",
      "noradId": 64901,
      "line1": "1 64901U 25156C   26167.26626404  .00000261  00000+0  15195-4 0  9994",
      "line2": "2 64901  97.4332 245.9725 0000278 358.8669   1.2566 15.20192868 49393",
      "category": "satellite"
    },
    {
      "id": "64902",
      "name": "CO3D 2",
      "noradId": 64902,
      "line1": "1 64902U 25156D   26167.23291703  .00004041  00000+0  18964-3 0  9998",
      "line2": "2 64902  97.4332 245.8385 0001518 109.5936 250.5463 15.20213318 49389",
      "category": "satellite"
    },
    {
      "id": "64903",
      "name": "CO3D 1",
      "noradId": 64903,
      "line1": "1 64903U 25156E   26167.23306915  .00004740  00000+0  22189-3 0  9991",
      "line2": "2 64903  97.4332 245.8387 0001313 114.3839 245.7534 15.20213402 49380",
      "category": "satellite"
    },
    {
      "id": "65055",
      "name": "PRSC-S1",
      "noradId": 65055,
      "line1": "1 65055U 25164A   26167.26949075  .00004124  00000+0  28630-3 0  9995",
      "line2": "2 65055  41.1313 292.9812 0006749 337.9801  22.0722 15.06452097 48293",
      "category": "satellite"
    },
    {
      "id": "66514",
      "name": "SENTINEL-6B",
      "noradId": 66514,
      "line1": "1 66514U 25264A   26167.30507216 -.00000072  00000+0 -46907-4 0  9997",
      "line2": "2 66514  66.0395 137.0107 0008019 269.2242  90.7855 12.80929973 27055",
      "category": "satellite"
    },
    {
      "id": "66655",
      "name": "CAS500-3",
      "noradId": 66655,
      "line1": "1 66655U 25274F   26167.27400388  .00001083  00000+0  12284-3 0  9993",
      "line2": "2 66655  97.7446  95.3457 0006733 112.3978 247.7953 14.88319321 30011",
      "category": "satellite"
    },
    {
      "id": "67304",
      "name": "CSG-3",
      "noradId": 67304,
      "line1": "1 67304U 26001A   26167.25389008  .00000245  00000+0  37303-4 0  9996",
      "line2": "2 67304  97.8885 350.8692 0001361  94.6509 265.4860 14.82153221 24325",
      "category": "satellite"
    },
    {
      "id": "68835",
      "name": "PRSC-E03",
      "noradId": 68835,
      "line1": "1 68835U 26092A   26167.26038513  .00002254  00000+0  15628-3 0  9996",
      "line2": "2 68835  38.0006  95.1452 0003899 357.0625   3.0113 15.06664530  7812",
      "category": "satellite"
    },
    {
      "id": "69013",
      "name": "CAS500-2",
      "noradId": 69013,
      "line1": "1 69013U 26100AK  26167.29670469  .00004973  00000+0  22981-3 0  9990",
      "line2": "2 69013  97.4079  65.1674 0010799  37.5547 322.6440 15.20581741  6677",
      "category": "satellite"
    }
  ]
}