OBJECT_NAME,OBJECT_ID,EPOCH,MEAN_MOTION,ECCENTRICITY,INCLINATION,RA_OF_ASC_NODE,ARG_OF_PERICENTER,MEAN_ANOMALY,EPHEMERIS_TYPE,CLASSIFICATION_TYPE,NORAD_CAT_ID,ELEMENT_SET_NO,REV_AT_EPOCH,BSTAR,MEAN_MOTION_DOT,MEAN_MOTION_DDOT
IONOSFERA-M 2,2024-199B,2026-06-16T05:50:40.685280,14.22757391,.00010904,98.7172,40.3363,39.1807,320.9449,0,U,61736,999,13069,.43772615E-4,.54E-6,0
PRSC-EO1,2025-012A,2026-06-15T06:42:33.338592,15.17748554,.0004318,97.4230,238.7768,259.0551,101.0197,0,U,62725,999,7790,.30911E-3,.6175E-4,0
BIOMASS,2025-090A,2026-06-16T05:10:02.923104,14.67536465,.00013596,98.0740,354.5463,92.8569,267.2791,0,U,63772,999,6054,.15936645E-3,.856E-5,0
GOSAT-GW (IBUKI GW),2025-141A,2026-06-16T07:17:27.456000,14.67554828,.00014202,98.0569,104.6352,83.4882,276.6484,0,U,64694,999,5171,.1210229E-3,.639E-5,0
IONOSFERA-M 3,2025-155A,2026-06-16T07:56:18.246336,14.21486342,.00009716,98.6024,129.2573,158.4808,201.6410,0,U,64876,999,4628,.34951576E-4,.34E-6,0
IONOSFERA-M 4,2025-155B,2026-06-16T07:05:07.107360,14.21488533,.00010105,98.6031,129.1401,119.9757,240.1521,0,U,64877,999,4627,.36874126E-4,.38E-6,0
MICROCARB,2025-156A,2026-06-16T04:45:32.853888,14.72324664,.00149771,97.9832,244.3533,275.6591,84.2909,0,U,64899,999,4782,.76880519E-4,.437E-5,0
CO3D 3,2025-156B,2026-06-16T06:23:11.874624,15.20205164,.0001473,97.4332,245.9723,133.0626,227.0733,0,U,64900,999,4939,.15857322E-3,.3367E-4,0
CO3D 4,2025-156C,2026-06-16T06:23:25.213056,15.20192868,.00002785,97.4332,245.9725,358.8669,1.2566,0,U,64901,999,4939,.15195258E-4,.261E-5,0
CO3D 2,2025-156D,2026-06-16T05:35:24.031392,15.20213318,.00015188,97.4332,245.8385,109.5936,250.5463,0,U,64902,999,4938,.18964015E-3,.4041E-4,0
CO3D 1,2025-156E,2026-06-16T05:35:37.174560,15.20213402,.00013138,97.4332,245.8387,114.3839,245.7534,0,U,64903,999,4938,.22189057E-3,.474E-4,0
PRSC-S1,2025-164A,2026-06-16T06:28:04.000800,15.06452097,.00067499,41.1313,292.9812,337.9801,22.0722,0,U,65055,999,4829,.28630277E-3,.4124E-4,0
SENTINEL-6B,2025-264A,2026-06-16T07:19:18.234624,12.80929973,.00080193,66.0395,137.0107,269.2242,90.7855,0,U,66514,999,2705,-.46907243E-4,-.72E-6,0
CAS500-3,2025-274F,2026-06-16T06:34:33.935232,14.88319321,.00067338,97.7446,95.3457,112.3978,247.7953,0,U,66655,999,3001,.12283632E-3,.1083E-4,0
CSG-3,2026-001A,2026-06-16T06:05:36.102912,14.82153221,.00013615,97.8885,350.8692,94.6509,265.4860,0,U,67304,999,2432,.37303066E-4,.245E-5,0
PRSC-E03,2026-092A,2026-06-16T06:14:57.275232,15.06664530,.00038996,38.0006,95.1452,357.0625,3.0113,0,U,68835,999,781,.15628054E-3,.2254E-4,0
CAS500-2,2026-100AK,2026-06-16T07:07:15.285216,15.20581741,.00107999,97.4079,65.1674,37.5547,322.6440,0,U,69013,999,667,.22980728E-3,.4973E-4,0
